NORAD_CAT_ID,TLE_LINE0,TLE_LINE1,TLE_LINE2,CREATION_DATE,OBJECT_NAME,OBJECT_ID,EPOCH,MEAN_MOTION,ECCENTRICITY,INCLINATION,RA_OF_ASC_NODE,ARG_OF_PERICENTER,MEAN_ANOMALY,REV_AT_EPOCH,BSTAR,MEAN_MOTION_DOT,MEAN_MOTION_DDOT,SEMIMAJOR_AXIS,PERIOD,APOAPSIS,PERIAPSIS,OBJECT_TYPE,COUNTRY_CODE,LAUNCH_DATE,SITE,DECAY_DATE,LAUNCH_YEAR,LAUNCH_SEQ,EPOCH_FINAL,ORBIT_CLASS,EVENT,DURATION,RCS_SIZE
695,0 THOR AGENA D,1 00695U 63048  A 63347.86411327  .02610780 +00000-0 +00000-0 0  9990,2 00695 070.0402 051.8001 0068114 139.9446 220.5687 16.27058098002576,15/08/2004 23:35,THOR AGENA D,1963-048A,13/12/1963 20:44,16.27058098,0.0068114,70.0402,51.8001,139.9446,220.5687,257,0.0,0.0261078,0.0,6578.598,88.503,245.273,155.654,PAYLOAD,US,30/09/1963,AFWTR,15/12/1963,1963,48,14/12/1963 17:28,LEO,1,76,MEDIUM
696,0 ATLAS CENTAUR 2 DEB,1 00696U 63047  B 92080.07898720  .11191777 -48000-5 +10369-1 0  9993,2 00696 030.0174 338.4215 0025224 254.4816 105.2755 16.10318287432055,29/04/2005 09:15,ATLAS CENTAUR 2 DEB,1963-047B,20/03/1992 01:53,16.10318287,0.0025224,30.0174,338.4215,254.4816,105.2755,43205,0.010369,0.11191777,-4.8e-06,6624.111,89.423,262.685,229.267,DEBRIS,US,27/11/1963,AFETR,20/03/1992,1963,47,20/03/1992 03:47,LEO,1,10341,SMALL
697,0 ATLAS CENTAUR 2 DEB,1 00697U 63047  C 89170.80521926  .02169359 +00000-0 +13499-1 0  9992,2 00697 029.9991 068.0703 0046272 242.4400 110.4227 15.74219996299565,02/05/2005 23:40,ATLAS CENTAUR 2 DEB,1963-047C,19/06/1989 19:19,15.74219996,0.0046272,29.9991,68.0703,242.44,110.4227,29956,0.013499,0.02169359,0.0,6724.992,91.473,377.975,315.74,DEBRIS,US,27/11/1963,AFETR,24/06/1989,1963,47,20/06/1989 14:39,LEO,1,9341,SMALL
698,0 ATLAS CENTAUR 2 DEB,1 00698U 63047D   25193.61523545  .00001017  00000-0  35066-3 0  9996,2 00698  29.9238 313.2191 0531341 183.5429 176.1290 13.73554592 32327,12/07/2025 17:51,ATLAS CENTAUR 2 DEB,1963-047D,12/07/2025 14:45,13.73554592,0.0531341,29.9238,313.2191,183.5429,176.129,3232,0.00035066,1.02e-05,0.0,7364.974,104.837,1378.17,595.508,DEBRIS,US,27/11/1963,AFETR,,1963,47,13/07/2025 05:31,LEO,0,22509,SMALL
699,0 ATLAS CENTAUR 2 DEB,1 00699U 63047  E 85060.99742528  .02436477 +13250-1 +58878-2 0  9992,2 00699 030.4089 025.7446 0019845 259.2265 099.0433 16.01058650068336,16/08/2004 23:18,ATLAS CENTAUR 2 DEB,1963-047E,01/03/1985 23:56,16.0105865,0.0019845,30.4089,25.7446,259.2265,99.0433,6833,0.0058878,0.02436477,0.01325,6649.627,89.94,284.688,258.295,DEBRIS,US,27/11/1963,AFETR,04/03/1985,1963,47,02/03/1985 23:52,LEO,1,7768,SMALL
700,0 ATLAS CENTAUR 2 DEB,1 00700U 63047F   25193.55808720  .00000225  00000-0  59813-4 0  9991,2 00700  30.4836 276.8327 0718252 312.5197  41.6841 13.39971735  4546,12/07/2025 17:51,ATLAS CENTAUR 2 DEB,1963-047F,12/07/2025 13:23,13.39971735,0.0718252,30.4836,276.8327,312.5197,41.6841,454,5.98e-05,2.25e-06,0.0,7487.522,107.465,1647.179,571.594,DEBRIS,US,27/11/1963,AFETR,,1963,47,13/07/2025 02:47,LEO,0,22509,SMALL
701,0 ATLAS CENTAUR 2 DEB,1 00701U 63047G   25193.48997322  .00000431  00000-0  11473-3 0  9999,2 00701  30.0129 115.8841 0508209 279.6372  74.7178 13.82288795 63166,12/07/2025 17:51,ATLAS CENTAUR 2 DEB,1963-047G,12/07/2025 11:45,13.82288795,0.0508209,30.0129,115.8841,279.6372,74.7178,6316,0.00011473,4.31e-06,0.0,7333.917,104.175,1328.498,583.066,DEBRIS,US,27/11/1963,AFETR,,1963,47,12/07/2025 23:31,LEO,0,22509,SMALL
702,0 WESTFORD NEEDLES,1 00702U 63014H   25193.54959758  .00000001  00000-0 -74491-3 0  9995,2 00702  87.3355 221.9345 0132342  25.6799 335.0554  8.65658802964889,12/07/2025 17:51,WESTFORD NEEDLES,1963-014H,12/07/2025 13:11,8.65658802,0.0132342,87.3355,221.9345,25.6799,335.0554,96488,-0.00074491,1e-08,0.0,10019.299,166.347,3773.762,3508.567,DEBRIS,US,09/05/1963,AFWTR,,1963,14,13/07/2025 02:22,MEO,0,22711,LARGE
703,0 THOR ABLESTAR R/B,1 00703U 63049A   25193.46719784  .00000052  00000-0  66675-4 0  9999,2 00703  89.9198  72.9204 0016320 165.1687  10.2013 13.49973933 33426,12/07/2025 17:51,THOR ABLESTAR R/B,1963-049A,12/07/2025 11:12,13.49973933,0.001632,89.9198,72.9204,165.1687,10.2013,3342,6.67e-05,5.2e-07,0.0,7450.491,106.669,1084.516,1060.197,ROCKET BODY,US,05/12/1963,AFWTR,,1963,49,12/07/2025 22:25,LEO,0,22501,LARGE
704,0 TRANSIT 5B-2,1 00704U 63049B   25193.44431522  .00000061  00000-0  84658-4 0  9990,2 00704  89.9173  73.2185 0034181 193.1784 340.1081 13.47081970 25583,12/07/2025 17:51,TRANSIT 5B-2,1963-049B,12/07/2025 10:39,13.4708197,0.0034181,89.9173,73.2185,193.1784,340.1081,2558,8.47e-05,6.1e-07,0.0,7461.151,106.898,1108.519,1057.513,PAYLOAD,US,05/12/1963,AFWTR,,1963,49,12/07/2025 21:19,LEO,0,22501,MEDIUM
705,0 TRANSIT 5E 3,1 00705U 63049C   25193.42747196  .00000086  00000-0  12425-3 0  9995,2 00705  89.9177  73.1799 0034578 149.7215  23.5236 13.47622167 26331,12/07/2025 17:51,TRANSIT 5E 3,1963-049C,12/07/2025 10:15,13.47622167,0.0034578,89.9177,73.1799,149.7215,23.5236,2633,0.00012425,8.6e-07,0.0,7459.157,106.855,1106.814,1055.23,PAYLOAD,US,05/12/1963,AFWTR,,1963,49,12/07/2025 20:31,LEO,0,22501,MEDIUM
706,0 THOR ABLESTAR DEB,1 00706U 63049D   25193.17965314  .00000207  00000-0  27971-3 0  9999,2 00706  89.9135  76.0460 0026818 338.8346 146.5976 13.56418706 37215,12/07/2025 17:51,THOR ABLESTAR DEB,1963-049D,12/07/2025 04:18,13.56418706,0.0026818,89.9135,76.046,338.8346,146.5976,3721,0.00027971,2.07e-06,0.0,7426.873,106.162,1068.655,1028.821,DEBRIS,US,05/12/1963,AFWTR,,1963,49,12/07/2025 08:37,LEO,0,22501,SMALL
707,0 COSMOS 23,1 00707U 63050  A 64084.34714007  .01610576 +00000-0 +00000-0 0  9992,2 00707 048.9375 049.9981 0042588 249.5237 110.0152 16.15747074016022,15/08/2004 23:35,COSMOS 23,1963-050A,24/03/1964 08:19,16.15747074,0.0042588,48.9375,49.9981,249.5237,110.0152,1602,0.0,0.01610576,0.0,6609.265,89.122,259.278,202.982,PAYLOAD,CIS,02/10/1963,PKMTR,27/03/1964,1963,50,24/03/1964 16:39,LEO,1,177,MEDIUM
708,0 SL-7 R/B,1 00708U 63050  B 64050.88968323  .00470751 +00000-0 +00000-0 0  9995,2 00708 049.0754 235.0834 0135601 094.6571 266.8928 15.90299887010717,15/08/2004 23:35,SL-7 R/B,1963-050B,19/02/1964 21:21,15.90299887,0.0135601,49.0754,235.0834,94.6571,266.8928,1071,0.0,0.00470751,0.0,6679.584,90.548,392.025,210.873,ROCKET BODY,CIS,04/10/1963,PKMTR,06/03/1964,1963,50,20/02/1964 18:42,LEO,1,154,LARGE
710,0 SL-7 DEB,1 00710U 63050  D 63359.76545831  .01946260 +00000-0 +00000-0 0  9995,2 00710 048.9560 177.6577 0166632 184.2055 175.4915 15.76146629001900,15/08/2004 23:35,SL-7 DEB,1963-050D,25/12/1963 18:22,15.76146629,0.0166632,48.956,177.6577,184.2055,175.4915,190,0.0,0.0194626,0.0,6719.511,91.362,453.345,229.408,DEBRIS,CIS,06/10/1963,PKMTR,01/01/1964,1963,50,26/12/1963 12:44,LEO,1,87,SMALL
711,0 ATLAS AGENA D,1 00711U 63051  A 63353.13128062  .00349618 +00000-0 +00000-0 0  9998,2 00711 097.8978 108.8831 0110703 094.1091 267.1662 16.27606646000042,15/08/2004 23:35,ATLAS AGENA D,1963-051A,19/12/1963 03:09,16.27606646,0.0110703,97.8978,108.8831,94.1091,267.1662,4,0.0,0.00349618,0.0,6577.12,88.473,271.796,126.175,PAYLOAD,US,08/10/1963,AFETR,20/12/1963,1963,51,19/12/1963 06:18,LEO,1,73,MEDIUM
712,0 COSMOS 24,1 00712U 63052  A 63357.28627443  .00066510 +00000-0 +00000-0 0  9994,2 00712 065.0333 251.5101 0145683 043.9904 317.1599 15.92019032000628,15/08/2004 23:35,COSMOS 24,1963-052A,23/12/1963 06:52,15.92019032,0.0145683,65.0333,251.5101,43.9904,317.1599,62,0.0,0.0006651,0.0,6674.774,90.451,393.879,199.399,PAYLOAD,CIS,10/10/1963,PKMTR,28/12/1963,1963,52,23/12/1963 13:44,LEO,1,79,MEDIUM
713,0 SL-3 R/B,1 00713U 63052  B 64021.79572414  .01123443 +00000-0 +00000-0 0  9997,2 00713 065.0085 143.9726 0051510 052.5136 307.9540 16.22939973005355,15/08/2004 23:35,SL-3 R/B,1963-052B,21/01/1964 19:05,16.22939973,0.005151,65.0085,143.9726,52.5136,307.954,535,0.0,0.01123443,0.0,6589.722,88.727,245.531,177.644,ROCKET BODY,CIS,12/10/1963,PKMTR,25/01/1964,1963,52,22/01/1964 14:11,LEO,1,105,LARGE
714,0 EXPLORER 19 (ADI-1),1 00714U 63053  A 81130.32197809 -.60229492 +40847-3 +24870+0 0  9992,2 00714 078.6742 076.7233 0031669 188.9597 171.1154 15.98052035730691,16/08/2004 23:12,EXPLORER 19 (ADI-1),1963-053A,10/05/1981 07:43,15.98052035,0.0031669,78.6742,76.7233,188.9597,171.1154,73069,0.2487,-0.60229492,0.00040847,6657.965,90.109,300.915,258.744,PAYLOAD,US,19/12/1963,AFWTR,10/05/1981,1963,53,10/05/1981 15:27,LEO,1,6352,MEDIUM
715,0 THOR ABLESTAR DEB,1 00715U 63049E   25193.19810030  .00000577  00000-0  59163-3 0  9993,2 00715  89.9093  80.8371 0031859 102.9949  22.5040 13.74995058 56656,12/07/2025 17:51,THOR ABLESTAR DEB,1963-049E,12/07/2025 04:45,13.74995058,0.0031859,89.9093,80.8371,102.9949,22.504,5665,0.00059163,5.77e-06,0.0,7359.829,104.728,1005.142,958.247,DEBRIS,US,05/12/1963,AFWTR,,1963,49,12/07/2025 09:30,LEO,0,22501,SMALL
716,0 TIROS 8,1 00716U 63054A   25193.44231824  .00000154  00000-0  53454-4 0  9995,2 00716  58.4926 214.4705 0022665 164.7557 195.4170 14.72595222265660,12/07/2025 17:51,TIROS 8,1963-054A,12/07/2025 10:36,14.72595222,0.0022665,58.4926,214.4705,164.7557,195.417,26566,5.35e-05,1.54e-06,0.0,7030.932,97.787,668.733,636.862,PAYLOAD,US,21/12/1963,AFWTR,,1963,54,12/07/2025 21:13,LEO,0,22485,MEDIUM
717,0 DELTA 1 R/B,1 00717U 63054  B 90278.19394713  .16186476 +52601-4 +21175-2 0  9991,2 00717 058.4452 131.6668 0007015 251.6246 108.7528 16.34970009437818,17/08/2004 14:43,DELTA 1 R/B,1963-054B,05/10/1990 04:39,16.34970009,0.0007015,58.4452,131.6668,251.6246,108.7528,43781,0.0021175,0.16186476,5.26e-05,6557.358,88.075,183.823,174.623,ROCKET BODY,US,21/12/1963,AFWTR,05/10/1990,1963,54,05/10/1990 09:18,LEO,1,9785,LARGE
718,0 THOR AGENA D,1 00718U 63055  A 64006.75643754  .02081842 +00000-0 +00000-0 0  9997,2 00718 064.7770 075.9695 0075458 138.8849 221.6867 16.24527991002550,15/08/2004 23:35,THOR AGENA D,1963-055A,06/01/1964 18:09,16.24527991,0.0075458,64.777,75.9695,138.8849,221.6867,255,0.0,0.02081842,0.0,6585.427,88.641,256.985,157.6,PAYLOAD,US,14/10/1963,AFWTR,08/01/1964,1963,55,07/01/1964 12:18,LEO,1,86,MEDIUM
